OBJECT B                
1 51825U 22019B   25335.00603950  .00040753  00000+0  69584-3 0  9999
2 51825  97.3701  54.3301 0009130 132.0437 228.1594 15.51164682208829
